{
  "type": "FeatureCollection",
  "features": [
    {
      "type": "Feature",
      "properties": {
        "norad_id": 64902,
        "name": "CO3D 2",
        "group": "resource",
        "lat": 19.655746131709794,
        "lon": -116.83173741814433,
        "alt_km": 510.7007973766222,
        "timestamp": "2025-12-10T04:57:29.263692+00:00",
        "meta_object_name": "CO3D 2",
        "meta_object_id": "2025-156D",
        "meta_epoch": "2025-12-09T12:27:23.938848",
        "meta_mean_motion": 15.20057842,
        "meta_eccentricity": 0.00090681,
        "meta_inclination": 97.4213,
        "meta_ra_of_asc_node": 59.8234,
        "meta_arg_of_pericenter": 303.4369,
        "meta_mean_anomaly": 56.5998,
        "meta_ephemeris_type": 0,
        "meta_classification_type": "U",
        "meta_norad_cat_id": 64902,
        "meta_element_set_no": 999,
        "meta_rev_at_epoch": 2071,
        "meta_bstar": 0.00028838885,
        "meta_mean_motion_dot": 6.16e-05,
        "meta_mean_motion_ddot": 0,
        "tle_line1": "1 64902U 25156D   25343.51902707  .00006160  00000+0  28839-3 0  9993",
        "tle_line2": "2 64902  97.4213  59.8234 0009068 303.4369  56.5998 15.20057842 20717"
      },
      "geometry": {
        "type": "Point",
        "coordinates": [
          -116.83173741814433,
          19.655746131709794
        ]
      }
    },
    {
      "type": "Feature",
      "properties": {
        "norad_id": 64903,
        "name": "CO3D 1",
        "group": "resource",
        "lat": 19.803503307593516,
        "lon": -116.79653859927649,
        "alt_km": 505.06845433000854,
        "timestamp": "2025-12-10T04:57:29.263702+00:00",
        "meta_object_name": "CO3D 1",
        "meta_object_id": "2025-156E",
        "meta_epoch": "2025-12-09T20:21:30.248928",
        "meta_mean_motion": 15.20214291,
        "meta_eccentricity": 9.32e-05,
        "meta_inclination": 97.4337,
        "meta_ra_of_asc_node": 60.1555,
        "meta_arg_of_pericenter": 98.4999,
        "meta_mean_anomaly": 261.6342,
        "meta_ephemeris_type": 0,
        "meta_classification_type": "U",
        "meta_norad_cat_id": 64903,
        "meta_element_set_no": 999,
        "meta_rev_at_epoch": 2076,
        "meta_bstar": 0.00041201,
        "meta_mean_motion_dot": 8.865e-05,
        "meta_mean_motion_ddot": 0,
        "tle_line1": "1 64903U 25156E   25343.84826677  .00008865  00000+0  41201-3 0  9993",
        "tle_line2": "2 64903  97.4337  60.1555 0000932  98.4999 261.6342 15.20214291 20767"
      },
      "geometry": {
        "type": "Point",
        "coordinates": [
          -116.79653859927649,
          19.803503307593516
        ]
      }
    },
    {
      "type": "Feature",
      "properties": {
        "norad_id": 66514,
        "name": "SENTINEL-6B",
        "group": "resource",
        "lat": -54.28181196308075,
        "lon": 129.4962409614644,
        "alt_km": 1317.3175691803708,
        "timestamp": "2025-12-10T04:57:29.263712+00:00",
        "meta_object_name": "SENTINEL-6B",
        "meta_object_id": "2025-264A",
        "meta_epoch": "2025-12-08T23:22:28.384896",
        "meta_mean_motion": 12.84031992,
        "meta_eccentricity": 0.00210406,
        "meta_inclination": 66.0385,
        "meta_ra_of_asc_node": 170.2707,
        "meta_arg_of_pericenter": 268.23,
        "meta_mean_anomaly": 91.6307,
        "meta_ephemeris_type": 0,
        "meta_classification_type": "U",
        "meta_norad_cat_id": 66514,
        "meta_element_set_no": 999,
        "meta_rev_at_epoch": 280,
        "meta_bstar": 0.000106025,
        "meta_mean_motion_dot": -3.6e-07,
        "meta_mean_motion_ddot": 0,
        "tle_line1": "1 66514U 25264A   25342.97393964 -.00000036  00000+0  10602-3 0  9998",
        "tle_line2": "2 66514  66.0385 170.2707 0021040 268.2300  91.6307 12.84031992  2809"
      },
      "geometry": {
        "type": "Point",
        "coordinates": [
          129.4962409614644,
          -54.28181196308075
        ]
      }
    }
  ]
}